satname,norad_id,inclination_deg,eccentricity,mean_motion_rev_per_day,perigee_km,apogee_km,l1,l2
STARLINK-1008,44714,53.1563,0.0002198,15.32195495,467.75828988172,470.768407074911,1 44714U 19074B   26083.45435487  .00016326  00000+0  52851-3 0  9991,2 44714  53.1563 110.0257 0002198  64.4869 295.6360 15.32195495351136
STARLINK-1012,44718,53.159,0.0002599,15.31396678,469.8640733954562,473.4245897316041,1 44718U 19074F   26083.50750254  .00032255  00000+0  10566-2 0  9998,2 44718  53.1590 109.9186 0002599  59.1024 301.0233 15.31396678351133
STARLINK-1017,44723,53.0498,0.0002854,15.25333142,487.8251494862034,491.745359509071,1 44723U 19074L   26083.48733380  .00016069  00000+0  64124-3 0  9997,2 44723  53.0498 103.1205 0002854  66.3871 293.7425 15.25333142351227
STARLINK-1019,44724,53.0403,3.06e-05,15.85762976,313.97245845495127,314.38202808663937,1 44724U 19074M   26083.58335647  .00073006  00000+0  29408-3 0  9993,2 44724  53.0403  61.5794 0000306  98.3574 326.6601 15.85762976  6045
STARLINK-1020,44725,53.159,0.0001707,15.30714711,472.5090608731489,474.84827074145596,1 44725U 19074N   26083.36332832  .00033736  00000+0  11279-2 0  9995,2 44725  53.1590 135.6778 0001707  69.9219 290.1965 15.30714711350757
STARLINK-1031,44736,53.0357,0.0003608,15.9956222,273.2317796581192,278.0331397002237,1 44736U 19074Z   26083.58335647  .00309501  51165-4  60973-3 0  9993,2 44736  53.0357  43.6517 0003608  77.0511  95.2188 15.99562220  5912
STARLINK-1036,44741,53.0478,0.0005265,15.58681632,387.9074514513686,395.0358493602462,1 44741U 19074AE  26083.50066361  .00069691  00000+0  88841-3 0  9999,2 44741  53.0478 116.6822 0005265 359.7848   0.3160 15.58681632351034
STARLINK-1039,44744,53.0565,0.0001147,15.22911785,496.2745202274182,497.851691131661,1 44744U 19074AH  26083.45222666  .00032892  00000+0  13923-2 0  9999,2 44744  53.0565 147.1730 0001147 272.1994  87.8870 15.22911785350602
STARLINK-1042,44747,53.0463,0.000152,15.50581366,413.9949843098457,416.0601063316235,1 44747U 19074AL  26083.15939876  .00026558  00000+0  46273-3 0  9994,2 44747  53.0463  25.3306 0001520 129.3523 230.7620 15.50581366352315
STARLINK-1043,44748,53.0507,0.0002425,15.54631006,401.5809811419813,404.8699419358272,1 44748U 19074AM  26083.51244311  .00027764  00000+0  41797-3 0  9994,2 44748  53.0507 122.9262 0002425  80.8188 279.3096 15.54631006350958
STARLINK-1046,44751,53.0509,0.0002852,15.45214715,428.80535388027147,432.6891414551401,1 44751U 19074AQ  26083.42962266  .00024228  00000+0  50929-3 0  9993,2 44751  53.0509 140.7190 0002852 254.4034 105.6657 15.45214715350694
STARLINK-1047,44752,53.0702,0.000154,15.32885496,466.15418787390627,468.2625542481928,1 44752U 19074AR  26083.29804023  .00008381  00000+0  27139-3 0  9994,2 44752  53.0702  77.7455 0001540 294.2365  65.8474 15.32885496351584
STARLINK-1048,44753,53.052,0.0002406,15.55923012,397.84018142674995,401.1015663356611,1 44753U 19074AS  26083.30577674  .00055765  00000+0  79100-3 0  9999,2 44753  53.0520  98.2018 0002406  43.9000 316.2202 15.55923012351273
STARLINK-1053,44758,53.0244,0.0005275,16.04049055,259.71543393795673,266.72206425325294,1 44758U 19074AX  26083.50640957  .00562150  15903-3  84731-3 0  9990,2 44758  53.0244   7.1307 0005275 148.7286 211.4059 16.04049055352579
STARLINK-1063,44768,53.159,0.0002161,15.31236629,470.64128749160136,473.6019692707878,1 44768U 19074BH  26083.50915980  .00037096  00000+0  12186-2 0  9990,2 44768  53.1590 150.5138 0002161  49.8076 310.3114 15.31236629350583
STARLINK-1067,44771,53.0491,0.0006055,15.59761468,384.249745757028,392.44395770147275,1 44771U 19074BL  26083.50611523  .00071361  00000+0  87276-3 0  9996,2 44771  53.0491 132.1480 0006055  21.3635 338.7629 15.59761468350820
STARLINK-1068,44772,53.0459,0.0004514,15.65865533,367.7041979518135,373.79709371847366,1 44772U 19074BM  26083.50229468  .00046661  00000+0  45316-3 0  9994,2 44772  53.0459 107.1915 0004514   1.8230 358.2800 15.65865533351163
STARLINK-1114,44927,53.0483,0.0006393,15.52734555,404.40714951832433,413.084858127012,1 44927U 20001P   26083.49411352  .00090994  00000+0  14377-2 0  9991,2 44927  53.0483 258.1563 0006393 175.9185 184.1878 15.52734555342398
STARLINK-1123,44930,53.1488,0.0001045,15.29330045,477.097382630066,478.53027635342823,1 44930U 20001S   26082.82355123  .00009853  00000+0  35359-3 0  9992,2 44930  53.1488 279.5859 0001045  65.4122 294.6987 15.29330045342035
STARLINK-1094,44941,53.1598,0.0001799,15.30476055,473.15817306721056,475.62371262104625,1 44941U 20001AD  26082.46453215  .00018527  00000+0  63070-3 0  9994,2 44941  53.1598 255.5729 0001799  79.7415 280.3789 15.30476055342348
STARLINK-1122,44949,53.1584,0.0001205,15.30181887,474.44331666458766,476.0949875472443,1 44949U 20001AM  26082.49123585 -.00001764  00000+0 -47479-4 0  9992,2 44949  53.1584 255.5013 0001205  72.1522 287.9610 15.30181887342347
STARLINK-1080,44961,53.0503,0.000404,15.49565321,415.25108697876385,420.7423630285675,1 44961U 20001AZ  26083.07382840  .00066484  00000+0  11822-2 0  9991,2 44961  53.0503 219.3340 0004040 171.5299 188.5777 15.49565321342908
STARLINK-1090,44968,53.1533,0.0001028,15.29626849,476.22222876123124,477.6316299051023,1 44968U 20001BG  26082.85592201  .00037034  00000+0  12786-2 0  9996,2 44968  53.1533 240.7047 0001028  88.6220 271.4898 15.29626849342587
STARLINK-1132,45044,53.1559,0.0003664,15.44990653,428.9105202052524,433.90055297606614,1 45044U 20006A   26083.54366208  .00046935  00000+0  98293-3 0  9998,2 45044  53.1559 183.4766 0003664 284.3917  75.6683 15.44990653339225
STARLINK-1131,45047,53.1601,0.000129,15.30195384,474.3447678030252,476.1129361928406,1 45047U 20006D   26081.85956443 -.00000267  00000+0  30976-5 0  9994,2 45047  53.1601 219.8041 0001290  89.5440 270.5708 15.30195384338568
STARLINK-1134,45048,53.031,0.0005797,15.4558639,425.7091485704359,433.6021033409688,1 45048U 20006E   26083.50610668  .00027194  00000+0  56295-3 0  9992,2 45048  53.0310 167.7379 0005797 241.0698 118.9727 15.45586390339436
STARLINK-1156,45054,53.1605,0.000145,15.30196378,474.2321464615952,476.21962169797916,1 45054U 20006L   26082.08184803  .00001977  00000+0  78857-4 0  9998,2 45054  53.1605 218.7853 0001450  76.0253 284.0909 15.30196378338590
STARLINK-1159,45057,53.0418,0.0002754,15.86904307,309.1258546575027,312.8102137103324,1 45057U 20006P   26083.58335647  .00114401  00000+0  43221-3 0  9994,2 45057  53.0418 159.5565 0002754  15.1473 355.7736 15.86904307  6048
STARLINK-1166,45060,53.0501,0.0001672,15.47606374,422.5932357725833,424.8677802672655,1 45060U 20006S   26083.50523382  .00052497  00000+0  10033-2 0  9995,2 45060  53.0501 201.9710 0001672 243.2562 116.8274 15.47606374338951
STARLINK-1169,45061,53.1597,0.0001691,15.30589943,472.8923121093894,475.2097220967735,1 45061U 20006T   26082.76672679  .00012168  00000+0  41726-3 0  9992,2 45061  53.1597 215.5933 0001691  72.0852 288.0333 15.30589943338702
STARLINK-1171,45062,53.0444,0.0003043,15.65323066,370.2556251769738,374.3639470910157,1 45062U 20006U   26083.53102984  .00050550  00000+0  50108-3 0  9997,2 45062  53.0444 176.6718 0003043  21.7756 338.3388 15.65323066339315
STARLINK-1133,45064,53.161,0.000133,15.30199763,474.30428113934613,476.12727297804395,1 45064U 20006W   26083.55720389  .00002913  00000+0  11044-3 0  9992,2 45064  53.1610 188.7398 0001330  84.1957 275.9196 15.30199763339156
STARLINK-1167,45071,53.1595,0.0002329,15.30288018,473.35619164090895,476.54836062573213,1 45071U 20006AD  26083.00142801  .00029230  00000+0  99243-3 0  9995,2 45071  53.1595 191.4197 0002329  48.5209 311.5991 15.30288018339069
STARLINK-1168,45072,53.1593,0.0001316,15.29361636,476.8171859363565,478.62164734521593,1 45072U 20006AE  26083.01493051 -.00000402  00000+0 -15984-5 0  9997,2 45072  53.1593 191.4587 0001316  85.5947 274.5203 15.29361636339066
STARLINK-1172,45074,53.1583,0.0001705,15.31242701,470.93555298662613,473.27148500360363,1 45074U 20006AG  26083.00715885  .00022634  00000+0  74947-3 0  9991,2 45074  53.1583 191.2674 0001705  46.8679 313.2465 15.31242701339061
STARLINK-1153,45080,53.1592,0.0002273,15.30271536,473.4437657611343,476.5592025160231,1 45080U 20006AN  26082.72458468  .00024766  00000+0  84364-3 0  9999,2 45080  53.1592 192.6240 0002273  27.2443 332.8677 15.30271536339020
STARLINK-1151,45081,53.0517,0.0003327,15.67256541,364.51274218940307,369.0007945028592,1 45081U 20006AP  26083.50297789  .00055684  00000+0  50993-3 0  9998,2 45081  53.0517 166.9527 0003327  27.8673 332.2520 15.67256541339447
STARLINK-1185,45087,53.1617,0.000203,15.33956442,462.6329474679296,465.41086398365405,1 45087U 20006AV  26083.51142039  .00029085  00000+0  88086-3 0  9992,2 45087  53.1617 173.2541 0002030  36.6694 323.4447 15.33956442339364
STARLINK-1183,45088,53.1596,0.0001083,15.30184573,474.51890902987907,476.00335506528063,1 45088U 20006AW  26083.51395648  .00001764  00000+0  71694-4 0  9991,2 45088  53.1596 173.7216 0001083  97.9433 262.1691 15.30184573339357
STARLINK-1152,45096,53.038,0.0002889,15.40262388,443.362975507549,447.30557721102923,1 45096U 20006BE  26083.39948174  .00038298  00000+0  94239-3 0  9995,2 45096  53.0380 136.9913 0002889 306.9238  53.1500 15.40262388339856
STARLINK-1184,45098,53.0527,0.0003406,15.10965447,530.9003446622546,535.6083844597924,1 45098U 20006BG  26083.55231360  .00017408  00000+0  10463-2 0  9993,2 45098  53.0527 178.2570 0003406 172.2041 187.9003 15.10965447339285
STARLINK-1193,45100,53.0498,0.0004972,15.58471594,388.7137197477077,395.4460234048029,1 45100U 20006BJ  26083.47513424  .00048091  00000+0  62164-3 0  9990,2 45100  53.0498 158.7021 0004972  22.6792 337.4438 15.58471594339551
STARLINK-1143,45179,53.0454,0.0005642,15.66326741,365.6187903746322,373.23274019898145,1 45179U 20012B   26083.19330990  .00055780  00000+0  53004-3 0  9993,2 45179  53.0454 258.7600 0005642 161.2004 198.9221 15.66326741338195
